satname,norad_id,inclination_deg,eccentricity,mean_motion_rev_per_day,perigee_km,apogee_km,l1,l2
STARLINK-1008,44714,53.0528,0.000129,15.06418081,546.2627800162727,548.0495056471236,1 44714U 19074B   25345.39721322  .00006427  00000+0  44976-3 0  9990,2 44714  53.0528 222.9771 0001290  88.5073 271.6063 15.06418081335446
STARLINK-1012,44718,53.0524,0.0001149,15.06409819,546.385745189391,547.9771833724826,1 44718U 19074F   25345.37509610  .00003309  00000+0  24083-3 0  9999,2 44718  53.0524 223.0756 0001149  93.0217 267.0904 15.06409819335436
STARLINK-1017,44723,53.0507,0.0006644,15.17627847,508.4336759037269,517.5906349014258,1 44723U 19074L   25345.34183888  .00012797  00000+0  64252-3 0  9990,2 44723  53.0507 216.9384 0006644  86.4895 273.6859 15.17627847335521
STARLINK-1019,44724,53.052,0.0004304,15.56106227,396.0220157033318,401.85572261150264,1 44724U 19074M   25345.65144600  .00046741  00000+0  66024-3 0  9999,2 44724  53.0520 210.6880 0004304 132.2080 227.9297 15.56106227335633
STARLINK-1020,44725,53.056,0.0001183,15.0643166,546.2952690420188,547.9337835531405,1 44725U 19074N   25345.44327551  .00033772  00000+0  22733-2 0  9993,2 44725  53.0560 242.7706 0001183 238.3853 121.7020 15.06431660335169
STARLINK-1031,44736,53.0482,0.0007682,15.58814545,385.88671810293636,396.28695360434176,1 44736U 19074Z   25345.66668981  .00093778  00000+0  11830-2 0  9992,2 44736  53.0482 197.4955 0007682  86.9237 299.2310 15.58814545  5968
STARLINK-1036,44741,53.0529,0.0001194,15.06417835,546.3300166800127,547.9837768625621,1 44741U 19074AE  25345.14103934  .00005109  00000+0  36144-3 0  9990,2 44741  53.0529 244.1263 0001194  88.8604 271.2522 15.06417835335122
STARLINK-1039,44744,53.0511,0.0002907,15.15238576,518.2489963817807,522.259721117759,1 44744U 19074AH  25345.45862681  .00017214  00000+0  91887-3 0  9993,2 44744  53.0511 258.4089 0002907  41.2737 318.8475 15.15238576334951
STARLINK-1042,44747,53.0452,0.0002278,15.45228699,429.15511380294356,432.2572227504106,1 44747U 19074AL  25344.78375888  .00029175  00000+0  61081-3 0  9991,2 44747  53.0452 159.8253 0002278 194.2798 165.8143 15.45228699336303
STARLINK-1043,44748,53.0556,0.0002527,15.43844074,433.0550276572121,436.49827421639657,1 44748U 19074AM  25345.48037383  .00056878  00000+0  12348-2 0  9996,2 44748  53.0556 257.3523 0002527 105.5509 254.5776 15.43844074334973
STARLINK-1046,44751,53.0541,0.0001492,15.06401766,546.1728842106213,548.2394066052111,1 44751U 19074AQ  25345.06179523  .00004558  00000+0  32466-3 0  9999,2 44751  53.0541 264.4880 0001492  63.3774 296.7368 15.06401766334837
STARLINK-1047,44752,53.0707,0.0001166,15.30380599,473.8768484056691,475.4749243707747,1 44752U 19074AR  25345.59090715  .00013144  00000+0  45259-3 0  9998,2 44752  53.0707 196.8639 0001166 342.4555  17.6404 15.30380599335848
STARLINK-1048,44753,53.0508,0.0001374,15.0639201,546.2844999891913,548.1875925023005,1 44753U 19074AS  25345.08759216 -.00001216  00000+0 -62753-4 0  9999,2 44753  53.0508 224.3653 0001374  82.5843 277.5302 15.06392010335392
STARLINK-1053,44758,53.0377,0.0003499,15.66991143,365.1580210491793,369.87863064620797,1 44758U 19074AX  25345.51239676  .00110075  00000+0  10071-2 0  9991,2 44758  53.0377 163.9832 0003499 169.0919 191.0173 15.66991143336297
STARLINK-1060,44765,53.0504,0.000821,15.75629479,337.32259962757234,348.35844471898054,1 44765U 19074BE  25345.66668981  .00201126  00000+0  12613-2 0  9992,2 44765  53.0504 207.9001 0008210 129.9745 273.4006 15.75629479  5857
STARLINK-1063,44768,53.0534,0.0001522,15.0641306,546.1174992499937,548.225563166895,1 44768U 19074BH  25345.51516965  .00024761  00000+0  16747-2 0  9993,2 44768  53.0534 262.4509 0001522 102.8170 257.2989 15.06413060334916
STARLINK-1067,44771,53.0535,0.0001697,15.06414656,545.9914157456378,548.341863800978,1 44771U 19074BL  25345.50411249  .00044981  00000+0  30183-2 0  9991,2 44771  53.0535 262.4996 0001697  77.3899 282.7280 15.06414656334906
STARLINK-1068,44772,53.0548,7.23e-05,15.16198743,516.8431337103284,517.8402199269967,1 44772U 19074BM  25345.66668981  .00081778  00000+0  41520-2 0  9998,2 44772  53.0548 241.5199 0000723 134.4783 205.5311 15.16198743  5786
STARLINK-1112,44925,53.048,0.0007383,15.64129951,370.75577850251466,380.7285564812328,1 44925U 20001M   25345.66668981  .00160530  00000+0  16323-2 0  9997,2 44925  53.0480 324.2851 0007383  33.5116 157.2796 15.64129951  5882
STARLINK-1114,44927,53.0551,0.000122,15.06389674,546.398309436734,548.0881022069534,1 44927U 20001P   25345.40089381 -.00002602  00000+0 -15588-3 0  9992,2 44927  53.0551  22.9624 0001220  98.9325 261.1802 15.06389674326542
STARLINK-1123,44930,53.056,0.0001277,15.06404006,546.3149147094819,548.0836455954313,1 44930U 20001S   25345.41564063  .00002072  00000+0  15793-3 0  9999,2 44930  53.0560  22.8943 0001277  84.9307 275.1828 15.06404006326546
STARLINK-1144,44933,53.0419,0.0002362,15.73631323,346.9398949718643,350.1175718643308,1 44933U 20001V   25345.66668981  .00288213  00000+0  19516-2 0  9992,2 44933  53.0419 298.8530 0002362 117.0429 196.4723 15.73631323  5909
STARLINK-1094,44941,53.0581,0.0001502,15.06394933,546.1868979210676,548.2672772929845,1 44941U 20001AD  25345.42855291  .00000677  00000+0  64357-4 0  9998,2 44941  53.0581   2.8408 0001502  91.5212 268.5949 15.06394933326823
STARLINK-1122,44949,53.0571,0.0001704,15.06396739,546.0414713542996,548.401633548976,1 44949U 20001AM  25345.45066014  .00000610  00000+0  59842-4 0  9996,2 44949  53.0571   2.7354 0001704  95.8064 264.3119 15.06396739326824
STARLINK-1080,44961,53.0556,0.0001333,15.06404504,546.2746067386779,548.1209009840559,1 44961U 20001AZ  25345.38246547  .00002169  00000+0  16442-3 0  9992,2 44961  53.0556 343.0447 0001333 103.8449 256.2688 15.06404504327103
STARLINK-1090,44968,53.0555,0.0001309,15.06401668,546.2999183061811,548.1129732202817,1 44968U 20001BG  25345.38615541 -.00000227  00000+0  36242-5 0  9999,2 44968  53.0555 343.0282 0001309  87.2372 272.8766 15.06401668327108
STARLINK-1107,44972,52.9896,0.0008089,16.20547138,212.73108749025505,223.40242592785853,1 44972U 20001BL  25345.96387782  .04257096  11802-4  20403-2 0  9998,2 44972  52.9896 231.7951 0008089 206.8451 153.2169 16.20547138328700
STARLINK-1132,45044,53.0572,0.0001378,15.06396525,546.2678938343515,548.1765228321692,1 45044U 20006A   25345.27927113  .00000541  00000+0  55223-4 0  9996,2 45044  53.0572 303.5109 0001378  95.0501 265.0645 15.06396525323414
STARLINK-1131,45047,53.0556,0.0001319,15.06395755,546.3111130915822,548.1380234732951,1 45047U 20006D   25345.38806398 -.00000215  00000+0  44779-5 0  9996,2 45047  53.0556 323.5611 0001319 100.2901 259.8237 15.06395755323149
STARLINK-1134,45048,53.0363,0.0004432,15.32643512,464.894701620432,470.9630544147076,1 45048U 20006E   25345.66668981  .00057654  00000+0  18009-2 0  9994,2 45048  53.0363 293.2042 0004432 352.8202 178.2257 15.32643512  5863
STARLINK-1156,45054,53.0553,0.0001561,15.06400098,546.1302107193997,548.2923044454183,1 45054U 20006L   25345.35851575  .00006228  00000+0  43661-3 0  9994,2 45054  53.0553 323.1530 0001561 101.2999 258.8166 15.06400098323144
STARLINK-1159,45057,53.0537,0.0006758,15.56479033,393.2774513509894,402.4358843924847,1 45057U 20006P   25345.60035296  .00049597  00000+0  68996-3 0  9993,2 45057  53.0537 308.9363 0006758  63.0461 297.1239 15.56479033323378
STARLINK-1166,45060,53.0564,0.0001437,15.06389096,546.249799939259,548.2401547195432,1 45060U 20006S   25345.38431286  .00000215  00000+0  33359-4 0  9991,2 45060  53.0564 323.0381 0001437  93.1791 266.9363 15.06389096323151
STARLINK-1169,45061,53.057,0.0001667,15.06390437,546.0864068205256,548.3953278014869,1 45061U 20006T   25345.32534795  .00000655  00000+0  62857-4 0  9998,2 45061  53.0570 323.3028 0001667  90.5247 269.5933 15.06390437323144
STARLINK-1171,45062,53.0527,0.0011958,15.39669696,438.92368202977286,455.24688364140275,1 45062U 20006U   25345.66668981  .00122971  00000+0  30234-2 0  9999,2 45062  53.0527 310.8438 0011958  55.4258 275.9267 15.39669696  5879
STARLINK-1133,45064,53.0571,0.00016,15.06410967,546.0698954753971,548.2859962580742,1 45064U 20006W   25345.58888142  .00002231  00000+0  16860-3 0  9991,2 45064  53.0571 302.1203 0001600 108.8005 251.3158 15.06410967323464
STARLINK-1167,45071,53.0549,0.0001444,15.06402753,546.2031012892448,548.2031395160175,1 45071U 20006AD  25345.61468858  .00001189  00000+0  98674-4 0  9996,2 45071  53.0549 301.9992 0001444  86.5970 273.5184 15.06402753323467
STARLINK-1168,45072,53.0559,0.0001191,15.06423695,546.3141367637809,547.9637374920048,1 45072U 20006AE  25345.61835688  .00007752  00000+0  53839-3 0  9991,2 45072  53.0559 301.9835 0001191  85.3655 274.7470 15.06423695323460
STARLINK-1172,45074,53.0557,0.0001266,15.06393945,546.3533642265102,548.1068671802059,1 45074U 20006AG  25345.16500168 -.00000128  00000+0  10299-4 0  9990,2 45074  53.0557 304.0239 0001266  94.9662 265.1472 15.06393945323391
STARLINK-1153,45080,53.0547,0.0001049,15.06402451,546.4775777107479,547.9305142621961,1 45080U 20006AN  25345.60731520  .00005579  00000+0  39308-3 0  9999,2 45080  53.0547 302.0300 0001049 106.9600 253.1504 15.06402451323463
STARLINK-1151,45081,53.0543,0.000118,15.15873298,517.5147920032687,519.1423578789554,1 45081U 20006AP  25345.66668981  .02012400  00000+0  94965-1 0  9997,2 45081  53.0543 301.3685 0001180  70.8335 219.4071 15.15873298  5695
STARLINK-1185,45087,53.0554,0.0001567,15.06419155,546.0676583244958,548.2380441638752,1 45087U 20006AV  25345.56861269  .00018738  00000+0  12728-2 0  9992,2 45087  53.0554 282.2101 0001567  91.1967 268.9202 15.06419155323741
STARLINK-1183,45088,53.0541,0.0001432,15.0638948,546.252085880139,548.2355149413761,1 45088U 20006AW  25345.52439161  .00000086  00000+0  24688-4 0  9998,2 45088  53.0541 282.4083 0001432  81.1231 278.9920 15.06389480323737
